MAYA-1                  
1 43590U 98067PE  19184.44641919  .00010236  00000-0  12050-3 0  9995
2 43590  51.6366 268.3243 0005008 210.2569 149.8137 15.62055459 50983
BHUTAN-1                
1 43591U 98067PF  19183.60489681  .00010071  00000-0  11849-3 0  9991
2 43591  51.6378 272.4752 0005189 207.5675 152.5045 15.62092042 50859
SIRIUSSAT-1             
1 43595U 98067PG  19183.66223865  .00009542  00000-0  11614-3 0  9992
2 43595  51.6368 273.5864 0003166 159.5643 200.5478 15.61278002 50026
SIRIUSSAT-2             
1 43596U 98067PH  19184.14213903  .00009479  00000-0  11606-3 0  9999
2 43596  51.6377 271.5769 0003642 162.3911 197.7210 15.61132415 50093
TANUSHA-3               
1 43597U 98067PJ  19184.18946052  .00012476  00000-0  14193-3 0  9997
2 43597  51.6360 269.5818 0002946 180.9500 179.1489 15.62711250 50121
SURFSAT                 
1 43614U 18070B   19184.04622288  .00001658  00000-0  45142-4 0  9999
2 43614  93.0220   9.5906 0013333 247.1605 112.8240 15.37559684 44619
CP7 (DAVE)              
1 43615U 18070C   19183.98759088  .00001483  00000-0  40500-4 0  9990
2 43615  93.0223   9.5677 0013520 246.5009 113.4824 15.37478360 44602
ELFIN-B                 
1 43616U 18070D   19184.05471887  .00002046  00000-0  54653-4 0  9998
2 43616  93.0189   9.5082 0014308 250.8964 109.0741 15.38104602 44624
ELFIN-A                 
1 43617U 18070E   19184.17832076  .00002651  00000-0  70674-4 0  9996
2 43617  93.0240   9.7854 0013420 246.1007 113.8841 15.38150378 44649
CUBEBEL-1 (BSUSAT-1)    
1 43666U 18083E   19184.53355521  .00000890  00000-0  47561-4 0  9991
2 43666  97.5192 208.9122 0016122 131.8886  21.4616 15.17596664 37539
DEBRISSAT-2             
1 43680U 98067PR  19184.48476256  .00015209  00000-0  16624-3 0  9995
2 43680  51.6367 267.8441 0002672 206.3624 153.7235 15.63541983 58906
CICERO 10               
1 43690U 18088A   19183.78434945  .00000747  00000-0  33025-4 0  9998
2 43690  85.0385 309.2272 0016296 148.9005 211.3204 15.19671333 35492
IRVINE01                
1 43693U 18088D   19184.34832938  .00001883  00000-0  81692-4 0  9993
2 43693  85.0360 308.4347 0020176 134.6236 225.6655 15.21414051 35596
PROXIMA I               
1 43694U 18088E   19183.78036231  .00000734  00000-0  30695-4 0  9994
2 43694  85.0329 308.6385 0021320 128.6031 231.7124 15.21396359 35526
PROXIMA II              
1 43696U 18088G   19183.77945715  .00000717  00000-0  29927-4 0  9998
2 43696  85.0330 308.6401 0021353 128.5636 231.7523 15.21401615 35519
FACSAT-1                
1 43721U 18096C   19184.42080528  .00001050  00000-0  43210-4 0  9993
2 43721  97.4592 254.2622 0016262 278.7258  81.2139 15.26311456 32984
CENTAURI-2              
1 43722U 18096D   19183.74372991  .00001082  00000-0  44141-4 0  9995
2 43722  97.4593 253.6361 0016425 282.0767  77.8631 15.26529874 32874
INNOSAT-2               
1 43738U 18096V   19184.44044239  .00001598  00000-0  59665-4 0  9990
2 43738  97.4597 255.0019 0022810 291.2720  68.6084 15.28687950 33038
SIRION PATHFINDER-2     
1 43759U 18099B   19184.44240789 -.00000271  00000-0 -19355-4 0  9995
2 43759  97.7446 256.2467 0012813 271.9252  88.0501 14.95133543 31624
CORVUS-BC 4             
1 43767U 18099K   19184.18618404 -.00000168  00000-0 -10259-4 0  9997
2 43767  97.7431 255.7740 0010338 276.2322  83.7721 14.94575351 31588
SHIELDS 1               
1 43850U 18104B   19183.79075340  .00000041  00000-0  00000+0 0  9995
2 43850  85.0294  47.1394 0012718 280.2507  79.7298 15.21088424 30168
STF-1                   
1 43852U 18104D   19184.12955223  .00000040  00000-0  00000+0 0  9991
2 43852  85.0319  47.1503 0012582 297.4536  62.5541 15.20615532 30202
ZACUBE-2                
1 43907U 18111AH  19184.51301926  .00000333  00000-0  16497-4 0  9995
2 43907  97.2894  89.3434 0020255 301.8393  58.0873 15.24196440 28700
LUME 1                  
1 43908U 18111AJ  19183.84810424  .00000626  00000-0  28325-4 0  9997
2 43908  97.2895  88.7145 0020271 304.6538  55.2788 15.24346636 28601
AOBA VELOX-IV           
1 43940U 19003J   19184.52603022  .00001220  00000-0  53106-4 0  9990
2 43940  97.2763 241.9975 0025258  23.8134  84.0987 15.23828281 25346
CATSAT-2                
1 44029U 98067PV  19184.44224462  .00008826  00000-0  12827-3 0  9997
2 44029  51.6397 277.3355 0004778 200.4352 159.6449 15.56623167 23876
DELPHINI                
1 44030U 98067PW  19184.49968899  .00007142  00000-0  10465-3 0  9999
2 44030  51.6388 276.9583 0004347 200.1640 159.9180 15.56747699 23855
UNITE                   
1 44031U 98067PX  19184.09485871  .00004883  00000-0  76298-4 0  9996
2 44031  51.6396 279.5069 0003125 191.4004 168.6917 15.55792530 23782
TECHEDSAT 8             
1 44032U 98067PY  19183.82513507  .00017627  00000-0  21909-3 0  9993
2 44032  51.6386 278.4551 0002995 204.6991 155.3860 15.60064063 23758
CATSAT-1                
1 44033U 98067PZ  19183.67171463  .00007504  00000-0  11017-3 0  9990
2 44033  51.6398 281.1896 0004562 196.6415 163.4428 15.56605721 23665
NEPALISAT-1             
1 44329U 98067QE  19183.68698745  .00004983  00000-0  88530-4 0  9999
2 44329  51.6417 284.2842 0007583 133.7665 226.3954 15.52105405  2430
RAAVANA-1               
1 44330U 98067QF  19183.49418312  .00005285  00000-0  93547-4 0  9990
2 44330  51.6416 285.2463 0007565 131.8261 228.3376 15.52067112  2388
UGUISU                  
1 44331U 98067QG  19184.13732595  .00005437  00000-0  95744-4 0  9995
2 44331  51.6415 282.0421 0007583 136.5825 223.5763 15.52147624  2491
SPOOQY-1                
1 44332U 98067QH  19183.68627154  .00005208  00000-0  91952-4 0  9992
2 44332  51.6414 284.2790 0006335 136.6611 223.4878 15.52178699  2382
